STARLINK-2227           
1 48575U 21041Y   22036.58334491  .00012171  00000+0  83430-3 0  9999
2 48575  53.0567 314.4241 0002385  56.3126 115.9475 15.06410938  3593
STARLINK-2228           
1 48576U 21041Z   22036.58334491 -.00002248  00000+0 -13215-3 0  9990
2 48576  53.0562 329.3520 0002168  43.3112 321.2762 15.06373545  3597
STARLINK-2231           
1 48577U 21041AA  22036.39038841  .00000216  00000+0  33405-4 0  9995
2 48577  53.0545 355.2969 0001490  80.1807 279.9350 15.06406409 40129
STARLINK-2232           
1 48578U 21041AB  22036.57006181 -.00002617  00000+0 -15684-3 0  9995
2 48578  53.0570 354.4989 0001712  76.8032 283.3148 15.06395133 40158
STARLINK-2233           
1 48579U 21041AC  22036.57838293 -.00002288  00000+0 -13478-3 0  9996
2 48579  53.0551 354.4655 0001731  66.5685 293.5486 15.06393981 40156
STARLINK-2234           
1 48580U 21041AD  22036.58334491  .00027005  00000+0  18261-2 0  9996
2 48580  53.0559 329.4418 0001397  89.3567 120.3617 15.06376195  3582
STARLINK-2235           
1 48581U 21041AE  22036.58334491  .00019324  00000+0  13132-2 0  9994
2 48581  53.0590 319.4179 0001630  65.0035 359.6910 15.06384528  3595
STARLINK-2236           
1 48582U 21041AF  22036.58334491  .00041350  00000+0  27817-2 0  9994
2 48582  53.0544 319.4270 0001490  59.5423 185.2044 15.06359602  3585
STARLINK-2237           
1 48583U 21041AG  22036.22729471  .00002100  00000+0  15979-3 0  9999
2 48583  53.0541   6.0447 0001440  66.4493 293.6647 15.06411040 39966
STARLINK-2238           
1 48584U 21041AH  22036.26784115  .00002520  00000+0  18802-3 0  9994
2 48584  53.0559   5.8560 0001521  66.4683 293.6465 15.06398404 39966
STARLINK-2240           
1 48585U 21041AJ  22036.21253885  .00001637  00000+0  12876-3 0  9998
2 48585  53.0566   6.1040 0001675  65.1401 294.9762 15.06410165 40354
STARLINK-2241           
1 48586U 21041AK  22036.20517275  .00001787  00000+0  13883-3 0  9999
2 48586  53.0568   6.1335 0001644  72.9364 287.1805 15.06407855 39952
STARLINK-2242           
1 48587U 21041AL  22036.41031788  .00094483  00000+0  61994-2 0  9993
2 48587  53.0570   5.2134 0001615  60.3124 299.8026 15.06864074 39984
STARLINK-2244           
1 48588U 21041AM  22036.18766374  .00005548  00000+0  39083-3 0  9993
2 48588  53.0543 356.2152 0001416  63.5137 296.5997 15.06422566 40093
STARLINK-2245           
1 48589U 21041AN  22036.38301918  .00016891  00000+0  11498-2 0  9997
2 48589  53.0554 355.3349 0001722  76.9773 283.1408 15.06410521 40129
STARLINK-2246           
1 48590U 21041AP  22036.40790503 -.00001416  00000+0 -76171-4 0  9994
2 48590  53.0563   5.2236 0001703  63.4196 296.6968 15.06406185 39989
STARLINK-2248           
1 48591U 21041AQ  22036.56638941  .00003961  00000+0  28456-3 0  9996
2 48591  53.0606 354.4565 0001797  69.6096 290.5086 15.06410755 41055
STARLINK-2249           
1 48592U 21041AR  22036.37472847  .00003340  00000+0  24290-3 0  9990
2 48592  53.0546   5.3816 0001599  69.6575 290.4586 15.06416944 39981
STARLINK-2250           
1 48593U 21041AS  22036.31575301 -.00000087  00000+0  13048-4 0  9990
2 48593  53.0564   5.6378 0001644  69.2975 290.8190 15.06405049 39977
STARLINK-2251           
1 48594U 21041AT  22036.58334491  .00018919  00000+0  13147-2 0  9993
2 48594  53.0556 334.1809 0001418  92.8758 294.7634 15.05565285  3591
STARLINK-2252           
1 48595U 21041AU  22036.43001973 -.00000559  00000+0 -18629-4 0  9999
2 48595  53.0563   5.1293 0001509  71.3375 288.7778 15.06401754 41269
STARLINK-2253           
1 48596U 21041AV  22036.31944532 -.00003892  00000+0 -24252-3 0  9995
2 48596  53.0562   5.6223 0001505  58.7047 301.4089 15.06397826 40438
STARLINK-2255           
1 48597U 21041AW  22036.19411762  .00002389  00000+0  17917-3 0  9994
2 48597  53.0556   6.1934 0001522  72.8071 287.3084 15.06412198 41225
STARLINK-2256           
1 48598U 21041AX  22036.39683983 -.00004332  00000+0 -27214-3 0  9996
2 48598  53.0550   5.2711 0001708  61.3161 298.8000 15.06395633 40444
STARLINK-2274           
1 48599U 21041AY  22036.55579462  .00003202  00000+0  23371-3 0  9994
2 48599  53.0561 339.5469 0001461  65.1588 294.9552 15.06406163 41633
STARLINK-2275           
1 48600U 21041AZ  22036.19503245  .00002522  00000+0  18806-3 0  9994
2 48600  53.0552 356.1643 0001487  71.6397 288.4754 15.06420467 41368
STARLINK-2713           
1 48602U 21041BB  22036.12454161  .00006213  00000+0  43535-3 0  9999
2 48602  53.0525 341.4928 0001602  62.4608 297.6543 15.06422311 41554
STARLINK-2714           
1 48603U 21041BC  22036.10378639  .00005236  00000+0  37000-3 0  9997
2 48603  53.0547 336.5860 0001636  65.1961 294.9198 15.06415025 41637
STARLINK-2757           
1 48604U 21041BD  22036.17199819  .00002127  00000+0  16158-3 0  9993
2 48604  53.0582   6.2811 0001898  70.0659 290.0534 15.06413377 41227
CAPELLA-6-WHITNEY       
1 48605U 21041BE  22036.53865318  .00011558  00000+0  96800-3 0  9998
2 48605  53.0361  18.1591 0013549  21.0755 339.0786 14.98780055 39803
TYVAK-0130              
1 48606U 21041BF  22036.38990613  .00003019  00000+0  27902-3 0  9999
2 48606  53.0329  19.9224 0014713  16.4291 343.7168 14.97364782 39762
SBIRS GEO-5 (USA 315)   
1 48618U 21042A   22036.08938105  .00000043  00000+0  00000+0 0  9998
2 48618   7.5684 326.7238 0006666 233.7760 335.3649  1.00272724  2787
TDO-3                   
1 48619U 21042B   22036.16075028  .00456389 -46699-5  10588-2 0  9998
2 48619  26.1587  69.9797 1856307 350.4342   6.8819 12.01953119 29552
TDO-4                   
1 48620U 21042C   22036.15711125  .00513420 -44794-5  10920-2 0  9998
2 48620  26.1515  62.9115 1816612   2.6276 358.2445 12.11289737 29670
HAIYANG-2D              
1 48621U 21043A   22036.49359080 -.00000050  00000+0  28784-4 0  9990
2 48621  65.9989 309.9602 0007967 280.2203  79.7968 13.83372905 36280
SPACEBEE-65             
1 48626U 21006ES  22036.41172075  .00021648  00000+0  10773-2 0  9995
2 48626  97.2281  90.5374 0014496   6.5323 353.6097 15.17527159 57343
SPACEBEE-64             
1 48627U 21006ET  22036.14580645  .00022974  00000+0  11416-2 0  9990
2 48627  97.2285  90.2880 0014516   7.2151 352.9289 15.17565627 57300
SPACEBEE-66             
1 48628U 21006EU  22036.42023852  .00021094  00000+0  10527-2 0  9998
2 48628  97.2280  90.5246 0014578   6.1784 353.9627 15.17431232 57348
SPACEBEE-67             
1 48629U 21006EV  22036.09311886  .00021603  00000+0  10795-2 0  9992
2 48629  97.2279  90.2069 0014674   7.2556 352.8888 15.17380351 57299
SPACEBEE-68             
1 48630U 21006EW  22036.56049308  .00017035  00000+0  85340-3 0  9996
2 48630  97.2281  90.6416 0014664   5.8027 354.3375 15.17340423 57362
SPACEBEE-69             
1 48631U 21006EX  22036.10339815  .00021122  00000+0  10587-2 0  9994
2 48631  97.2282  90.1966 0014833   7.3870 352.7579 15.17276082 57299
SPACEBEE-70             
1 48632U 21006EY  22036.57429408  .00017343  00000+0  87160-3 0  9996
2 48632  97.2280  90.6250 0014928   5.7793 354.3611 15.17221027 57362
SPACEBEE-71             
1 48633U 21006EZ  22036.45264674  .00018848  00000+0  94899-3 0  9994
2 48633  97.2280  90.4852 0015169   6.5327 353.6102 15.17136432 57349
SPACEBEE-72             
1 48634U 21006FA  22036.39977638  .00018729  00000+0  94599-3 0  9994
2 48634  97.2283  90.4087 0015397   6.8673 353.2769 15.17023618 57338
SPACEBEE-73             
1 48635U 21006FB  22036.40863013  .00018826  00000+0  95272-3 0  9995
2 48635  97.2283  90.3975 0015620   6.8961 353.2485 15.16951635 57336
SPACEBEE-74             
1 48636U 21006FC  22036.55686577  .00016486  00000+0  83841-3 0  9999
2 48636  97.2281  90.5031 0015870   6.1120 354.0304 15.16802999 57356
SPACEBEE-75             
1 48637U 21006FD  22036.57174184  .00015743  00000+0  80338-3 0  9991
2 48637  97.2277  90.4837 0016150   6.0877 354.0550 15.16688120 57356
STARLINK-2758           
1 48638U 21044A   22036.18994091  .00002941  00000+0  21619-3 0  9991
2 48638  53.0566 341.1991 0001664  84.5569 275.5610 15.06412898 38672
STARLINK-2739           
1 48639U 21044B   22036.57326853  .00012668  00000+0  86675-3 0  9990
2 48639  53.0569 339.4716 0001503  65.4204 294.6942 15.06445703 38735
STARLINK-2736           
1 48640U 21044C   22036.54010876  .00000083  00000+0  24458-4 0  9994
2 48640  53.0564 339.6318 0001785  65.0611 295.0563 15.06402064 38728
STARLINK-2754           
1 48641U 21044D   22036.57930245 -.00007743  00000+0 -50151-3 0  9999
2 48641  53.0559 344.4544 0001466  63.1442 296.9697 15.06395063 38666
STARLINK-2646           
1 48642U 21044E   22036.32771614  .00003580  00000+0  25893-3 0  9994
2 48642  53.0574 345.5760 0001630  70.8708 289.2458 15.06424552 38621
STARLINK-2704           
1 48643U 21044F   22036.57561265 -.00001132  00000+0 -57135-4 0  9999
2 48643  53.0563 344.4618 0001664  80.6821 279.4356 15.06394099 38666
STARLINK-2695           
1 48644U 21044G   22036.57193498 -.00001693  00000+0 -94809-4 0  9990
2 48644  53.0582 344.4928 0001739  57.8898 302.2260 15.06393742 38668
STARLINK-2733           
1 48645U 21044H   22036.56824486  .00000400  00000+0  45736-4 0  9996
2 48645  53.0546 344.5069 0001710  67.3431 292.7739 15.06402076 38669
STARLINK-2732           
1 48646U 21044J   22036.56455388 -.00001662  00000+0 -92686-4 0  9997
2 48646  53.0554 344.5049 0001324  84.3709 275.7431 15.06404181 38664
STARLINK-2691           
1 48647U 21044K   22036.56086602 -.00000331  00000+0 -33046-5 0  9995
2 48647  53.0560 344.5397 0001434  76.8732 283.2417 15.06396559 38669
STARLINK-2521           
1 48648U 21044L   22036.55992088 -.00003098  00000+0 -18913-3 0  9996
2 48648  53.0563 344.5397 0001546  74.6003 285.5156 15.06403245 38660
STARLINK-2673           
1 48649U 21044M   22036.55718789 -.00004561  00000+0 -28747-3 0  9993
2 48649  53.0559 344.5440 0001739  57.4396 302.6761 15.06400589 38653
